NORAD_CAT_ID,OBJECT_NAME,OBJECT_TYPE,EPOCH,MEAN_MOTION,ECCENTRICITY,INCLINATION,RA_OF_ASC_NODE,ARG_OF_PERICENTER,MEAN_ANOMALY,BSTAR,MEAN_MOTION_DOT,MEAN_MOTION_DDOT,TLE_LINE0,TLE_LINE1,TLE_LINE2,SEMIMAJOR_AXIS,PERIOD,APOGEE,PERIGEE,DECAYED
50825.0,STARLINK-3332,PAYLOAD,2022-03-31 06:00:00,15.29559129,0.0001373,53.2176,152.0286,53.448,336.8478,-0.026827,-0.00718536,0.0,0 STARLINK-3332,1 50825U 22001Y   22090.25001157 -.00718536  00000-0 -26827-1 0  9997,2 50825  53.2176 152.0286 0001373  53.4480 336.8478 15.29559129 14358,6855.266,94.145,478.072,476.19,0.0
50825.0,STARLINK-3332,PAYLOAD,2022-03-31 14:00:01,15.29046232,0.0001467,53.2175,150.485,48.7384,17.7367,-0.027087,-0.00714417,0.0,0 STARLINK-3332,1 50825U 22001Y   22090.58334491 -.00714417  00000-0 -27087-1 0  9996,2 50825  53.2175 150.4850 0001467  48.7384  17.7367 15.29046232  3659,6856.799,94.176,479.67,477.658,0.0
50825.0,STARLINK-3332,PAYLOAD,2022-03-31 22:00:00,15.28537334,0.0001351,53.2175,148.9394,58.5222,43.5197,-0.027571,-0.00724009,0.0,0 STARLINK-3332,1 50825U 22001Y   22090.91667824 -.00724009  00000-0 -27571-1 0  9998,2 50825  53.2175 148.9394 0001351  58.5222  43.5197 15.28537334  3673,6858.321,94.208,481.11300000000006,479.259,0.0
50825.0,STARLINK-3332,PAYLOAD,2022-04-01 08:00:01,15.27899017,0.0001626,53.2174,147.0118,52.3242,183.3137,-0.028049,-0.00722398,0.0,0 STARLINK-3332,1 50825U 22001Y   22091.33334491 -.00722398  00000-0 -28049-1 0  9996,2 50825  53.2174 147.0118 0001626  52.3242 183.3137 15.27899017 14515,6860.231,94.247,483.211,480.981,0.0
50825.0,STARLINK-3332,PAYLOAD,2022-04-01 14:00:01,15.27513833,0.0001543,53.2174,145.8567,54.7347,116.6016,-0.028198,-0.00718011,0.0,0 STARLINK-3332,1 50825U 22001Y   22091.58334491 -.00718011  00000-0 -28198-1 0  9995,2 50825  53.2174 145.8567 0001543  54.7347 116.6016 15.27513833  3667,6861.384,94.271,484.3080000000001,482.191,0.0
50825.0,STARLINK-3332,PAYLOAD,2022-04-01 22:00:00,15.27007027,0.0001498,53.2175,144.3145,58.5745,146.4896,-0.028843,-0.00722804,0.0,0 STARLINK-3332,1 50825U 22001Y   22091.91667824 -.00722804  00000-0 -28843-1 0  9993,2 50825  53.2175 144.3145 0001498  58.5745 146.4896 15.27007027  3645,6862.901999999999,94.302,485.795,483.739,0.0
50825.0,STARLINK-3332,PAYLOAD,2022-04-02 14:00:01,15.25984751,0.0001469,53.2174,141.2391,58.8603,211.8845,-0.029572,-0.00718671,0.0,0 STARLINK-3332,1 50825U 22001Y   22092.58335648 -.00718671  00000-0 -29572-1 0  9990,2 50825  53.2174 141.2391 0001469  58.8603 211.8845 15.25984751 14703,6865.967,94.365,488.841,486.823,0.0
50825.0,STARLINK-3332,PAYLOAD,2022-04-02 22:00:01,15.25477063,0.0001378,53.2175,139.7005,57.9347,244.7001,-0.030218,-0.0072286,0.0,0 STARLINK-3332,1 50825U 22001Y   22092.91668981 -.00722860  00000-0 -30218-1 0  9990,2 50825  53.2175 139.7005 0001378  57.9347 244.7001 15.25477063  3656,6867.49,94.397,490.302,488.409,0.0
50825.0,STARLINK-3332,PAYLOAD,2022-04-03 14:00:01,15.24456376,0.0001402,53.2174,136.6324,51.5263,312.9846,-0.031083,-0.00721151,0.0,0 STARLINK-3332,1 50825U 22001Y   22093.58334491 -.00721151  00000-0 -31083-1 0  9993,2 50825  53.2174 136.6324 0001402  51.5263 312.9846 15.24456376 14863,6870.555,94.46,493.384,491.457,0.0
50825.0,STARLINK-3332,PAYLOAD,2022-04-03 22:00:00,15.23946593,0.0001418,53.2175,135.0974,47.3081,347.2553,-0.031611,-0.00722197,0.0,0 STARLINK-3332,1 50825U 22001Y   22093.91667824 -.00722197  00000-0 -31611-1 0  9997,2 50825  53.2175 135.0974 0001418  47.3081 347.2553 15.23946593  3640,6872.087,94.492,494.927,492.978,0.0
50825.0,STARLINK-3332,PAYLOAD,2022-04-04 14:00:01,15.2292575,0.0001578,53.2172,132.0365,45.6376,47.1889,-0.032489,-0.00720132,0.0,0 STARLINK-3332,1 50825U 22001Y   22094.58334491 -.00720132  00000-0 -32489-1 0  9993,2 50825  53.2172 132.0365 0001578  45.6376  47.1889 15.22925750 15016,6875.158,94.555,498.108,495.93800000000016,0.0
50825.0,STARLINK-3332,PAYLOAD,2022-04-04 22:00:00,15.224165300000005,0.0001721999999999,53.2174,130.505,40.8064,80.2338,-0.033064,-0.00721766,0.0,0 STARLINK-3332,1 50825U 22001Y   22094.91667824 -.00721766  00000-0 -33064-1 0  9993,2 50825  53.2174 130.5050 0001722  40.8064  80.2338 15.22416530  3660,6876.691,94.586,499.74,497.372,0.0
50825.0,STARLINK-3332,PAYLOAD,2022-04-05 14:00:01,15.21395809,0.0001633,53.2172,127.4511,50.679,125.0109,-0.033991,-0.00720031,0.0,0 STARLINK-3332,1 50825U 22001Y   22095.58335648 -.00720031  00000-0 -33991-1 0  9996,2 50825  53.2172 127.4511 0001633  50.6790 125.0109 15.21395809  3670,6879.766,94.65,502.755,500.508,0.0
50825.0,STARLINK-3332,PAYLOAD,2022-04-05 16:00:00,15.21238087,0.0001595,53.2167,127.0702,44.5437,227.7483,-0.0320279999999999,-0.00678101,0.0,0 STARLINK-3332,1 50825U 22001Y   22095.66667824 -.00678101  00000-0 -32028-1 0  9999,2 50825  53.2167 127.0702 0001595  44.5437 227.7483 15.21238087 15187,6880.2419999999975,94.66,503.204,501.01,0.0
50825.0,STARLINK-3332,PAYLOAD,2022-04-05 22:00:00,15.20886453,0.0001701,53.2172,125.9232,46.9199,155.0821,-0.034563,-0.00721168,0.0,0 STARLINK-3332,1 50825U 22001Y   22095.91667824 -.00721168  00000-0 -34563-1 0  9995,2 50825  53.2172 125.9232 0001701  46.9199 155.0821 15.20886453  3662,6881.302,94.682,504.338,501.997,0.0
50825.0,STARLINK-3332,PAYLOAD,2022-04-06 06:00:02,15.20376529,0.0001929,53.2174,124.3994,40.0317,187.7948,-0.035098,-0.00721449,0.0,0 STARLINK-3332,1 50825U 22001Y   22096.25002315 -.00721449  00000-0 -35098-1 0  9997,2 50825  53.2174 124.3994 0001929  40.0317 187.7948 15.20376529 15260,6882.840999999999,94.713,506.034,503.378,0.0
50825.0,STARLINK-3332,PAYLOAD,2022-04-06 14:00:01,15.19867697,0.0001682,53.2171,122.8766,46.4395,206.4713,-0.0357,-0.00722835,0.0,0 STARLINK-3332,1 50825U 22001Y   22096.58334491 -.00722835  00000-0 -35700-1 0  9996,2 50825  53.2171 122.8766 0001682  46.4395 206.4713 15.19867697  3657,6884.377,94.745,507.4,505.084,0.0
50825.0,STARLINK-3332,PAYLOAD,2022-04-06 22:00:00,15.19355839,0.0001625,53.2173,121.3522,46.8543,230.5946,-0.03608,-0.00719892,0.0,0 STARLINK-3332,1 50825U 22001Y   22096.91667824 -.00719892  00000-0 -36080-1 0  9993,2 50825  53.2173 121.3522 0001625  46.8543 230.5946 15.19355839  3666,6885.9230000000025,94.777,508.907,506.669,0.0
50825.0,STARLINK-3332,PAYLOAD,2022-04-07 06:00:00,15.18754861,0.0001565999999999,53.2173,119.8331,56.5224,244.8961,-0.029989,-0.00589517,0.0,0 STARLINK-3332,1 50825U 22001Y   22097.25001157 -.00589517  00000-0 -29989-1 0  9991,2 50825  53.2173 119.8331 0001566  56.5224 244.8961 15.18754861 15423,6887.74,94.815,510.6830000000001,508.526,0.0
50825.0,STARLINK-3332,PAYLOAD,2022-04-07 14:00:01,15.1833886,0.0001514,53.2171,118.3127,49.2748,275.4056,-0.037417,-0.00724468,0.0,0 STARLINK-3332,1 50825U 22001Y   22097.58334491 -.00724468  00000-0 -37417-1 0  9998,2 50825  53.2171 118.3127 0001514  49.2748 275.4056 15.18338860  3655,6888.998000000001,94.84,511.906,509.82,0.0
50825.0,STARLINK-3332,PAYLOAD,2022-04-07 20:00:01,15.1795441,0.000178,53.2175,117.1719,42.6331,209.1297,-0.037661,-0.00721371,0.0,0 STARLINK-3332,1 50825U 22001Y   22097.83334491 -.00721371  00000-0 -37661-1 0  9997,2 50825  53.2175 117.1719 0001780  42.6331 209.1297 15.17954410 15505,6890.161,94.865,513.252,510.799,0.0
50825.0,STARLINK-3332,PAYLOAD,2022-04-07 22:00:00,15.1769019,0.0001934,53.2173,116.7933,38.5249,308.9349,-0.028315,-0.00542701,0.0,0 STARLINK-3332,1 50825U 22001Y   22097.91667824 -.00542701  00000-0 -28315-1 0  9999,2 50825  53.2173 116.7933 0001934  38.5249 308.9349 15.17690190  3616,6890.96,94.881,514.158,511.49300000000005,0.0
50825.0,STARLINK-3332,PAYLOAD,2022-04-08 14:00:03,15.16808287,0.0001606,53.2171,113.7595,42.0623,348.9996,-0.039047,-0.0072343,0.0,0 STARLINK-3332,1 50825U 22001Y   22098.58336806 -.00723430  00000-0 -39047-1 0  9990,2 50825  53.2171 113.7595 0001606  42.0623 348.9996 15.16808287  3649,6893.630999999999,94.936,516.6030000000002,514.389,0.0
50825.0,STARLINK-3332,PAYLOAD,2022-04-08 22:00:00,15.162958499999998,0.0001720999999999,53.2172,112.2425,37.1676,14.6294,-0.03943,-0.0072011,0.0,0 STARLINK-3332,1 50825U 22001Y   22098.91667824 -.00720110  00000-0 -39430-1 0  9992,2 50825  53.2172 112.2425 0001721  37.1676  14.6294 15.16295850 15677,6895.184,94.968,518.236,515.863,0.0
50825.0,STARLINK-3332,PAYLOAD,2022-04-09 14:00:01,15.15277315,0.0001625,53.2171,109.2172,44.8303,46.8453,-0.040686,-0.00721608,0.0,0 STARLINK-3332,1 50825U 22001Y   22099.58334491 -.00721608  00000-0 -40686-1 0  9995,2 50825  53.2171 109.2172 0001625  44.8303  46.8453 15.15277315  3650,6898.274,95.032,521.26,519.018,0.0
50825.0,STARLINK-3332,PAYLOAD,2022-04-09 22:00:00,15.14767405,0.0001745,53.2173,107.7038,41.9686,68.7293,-0.041347,-0.00722699,0.0,0 STARLINK-3332,1 50825U 22001Y   22099.91667824 -.00722699  00000-0 -41347-1 0  9997,2 50825  53.2173 107.7038 0001745  41.9686  68.7293 15.14767405 15821,6899.821999999999,95.064,522.891,520.4830000000002,0.0
50825.0,STARLINK-3332,PAYLOAD,2022-04-10 14:00:01,15.13747035,0.0001789,53.2171,104.6854,43.9601,102.9404,-0.04246,-0.00721117,0.0,0 STARLINK-3332,1 50825U 22001Y   22100.58334491 -.00721117  00000-0 -42460-1 0  9995,2 50825  53.2171 104.6854 0001789  43.9601 102.9404 15.13747035  3646,6902.922,95.128,526.0219999999998,523.552,0.0
50825.0,STARLINK-3332,PAYLOAD,2022-04-10 22:00:00,15.13238444,0.0001783,53.2173,103.1757,44.6267,119.457,-0.043283,-0.00724379,0.0,0 STARLINK-3332,1 50825U 22001Y   22100.91667824 -.00724379  00000-0 -43283-1 0  9998,2 50825  53.2173 103.1757 0001783  44.6267 119.4570 15.13238444  3651,6904.469,95.16,527.565,525.1030000000002,0.0
50825.0,STARLINK-3332,PAYLOAD,2022-04-11 04:00:01,15.12855618,0.000184,53.2175,102.0465,38.1886,48.4424,-0.043695,-0.00723504,0.0,0 STARLINK-3332,1 50825U 22001Y   22101.16668981 -.00723504  00000-0 -43695-1 0  9997,2 50825  53.2175 102.0465 0001840  38.1886  48.4424 15.12855618 16016,6905.6330000000025,95.184,528.769,526.2280000000002,0.0
